{
  "norad_id": 67127,
  "name": "STARLINK-36164",
  "history": [
    {
      "epoch": "2026-05-06T12:24:32.975712Z",
      "apogee_km": 484.85133631892404,
      "perigee_km": 481.33330959587056,
      "latitude_deg": -1.2588046527087058e-05,
      "longitude_deg": 151.59863973180427,
      "height_km": 482.7052463261967,
      "semi_major_axis_km": 6861.229322957397,
      "eccentricity": 0.00025637,
      "inclination_deg": 43.0063,
      "raan_deg": 202.1126,
      "arg_perigee_deg": 275.3945,
      "mean_anomaly_deg": 84.6614,
      "mean_motion_rev_day": 15.27565564
    },
    {
      "epoch": "2026-05-07T11:56:53.757024Z",
      "apogee_km": 484.51914897228016,
      "perigee_km": 481.530426897456,
      "latitude_deg": -4.250587090676087e-06,
      "longitude_deg": 152.00683952855394,
      "height_km": 482.6703684502745,
      "semi_major_axis_km": 6861.161787934868,
      "eccentricity": 0.0002178,
      "inclination_deg": 43.0055,
      "raan_deg": 196.5741,
      "arg_perigee_deg": 275.0811,
      "mean_anomaly_deg": 84.9792,
      "mean_motion_rev_day": 15.27588118
    }
  ]
}